$$SOE
2460154.500000000, A.D. 2023-Jul-29 00:00:00.0000, -3.349261478506179E+08, 2.129370476318803E+08, -4.563041810317890E+07,
2460161.500000000, A.D. 2023-Aug-05 00:00:00.0000, -3.444304675894961E+08, 2.060285486123772E+08, -4.387815777239002E+07,
2460168.500000000, A.D. 2023-Aug-12 00:00:00.0000, -3.536807890071813E+08, 1.989680236951032E+08, -4.209351978530954E+07,
2460175.500000000, A.D. 2023-Aug-19 00:00:00.0000, -3.626783456290681E+08, 1.917652121597418E+08, -4.027877962545741E+07,
2460182.500000000, A.D. 2023-Aug-26 00:00:00.0000, -3.714246322174133E+08, 1.844294526160987E+08, -3.843611513204867E+07,
2460189.500000000, A.D. 2023-Sep-02 00:00:00.0000, -3.799213741202258E+08, 1.769696932417922E+08, -3.656760931213925E+07,
2460196.500000000, A.D. 2023-Sep-09 00:00:00.0000, -3.881704992006385E+08, 1.693945028142743E+08, -3.467525334276131E+07,
2460203.500000000, A.D. 2023-Sep-16 00:00:00.0000, -3.961741120235631E+08, 1.617120822463147E+08, -3.276094973046660E+07,
2460210.500000000, A.D. 2023-Sep-23 00:00:00.0000, -4.039344697263462E+08, 1.539302767118883E+08, -3.082651559802832E+07,
2460217.500000000, A.D. 2023-Sep-30 00:00:00.0000, -4.114539597572157E+08, 1.460565893826104E+08, -2.887368593179592E+07,
2460224.500000000, A.D. 2023-Oct-07 00:00:00.0000, -4.187350816840457E+08, 1.380981960878018E+08, -2.690411658654873E+07,
2460231.500000000, A.D. 2023-Oct-14 00:00:00.0000, -4.257804318876466E+08, 1.300619574659221E+08, -2.491938738782640E+07,
2460238.500000000, A.D. 2023-Oct-21 00:00:00.0000, -4.325926877675341E+08, 1.219544301111866E+08, -2.292100547462874E+07,
2460245.500000000, A.D. 2023-Oct-28 00:00:00.0000, -4.391745927476792E+08, 1.137818788915164E+08, -2.091040854887468E+07,
2460252.500000000, A.D. 2023-Nov-04 00:00:00.0000, -4.455289432063361E+08, 1.055502895994125E+08, -1.888896796597644E+07,
2460259.500000000, A.D. 2023-Nov-11 00:00:00.0000, -4.516585770343077E+08, 9.726538128309335E+07, -1.685799172093758E+07,
2460266.500000000, A.D. 2023-Nov-18 00:00:00.0000, -4.575663634904920E+08, 8.893261815231182E+07, -1.481872734674570E+07,
2460273.500000000, A.D. 2023-Nov-25 00:00:00.0000, -4.632551941775833E+08, 8.055722104949468E+07, -1.277236472343751E+07,
2460280.500000000, A.D. 2023-Dec-02 00:00:00.0000, -4.687279750130909E+08, 7.214417845142388E+07, -1.072003879682035E+07,
2460287.500000000, A.D. 2023-Dec-09 00:00:00.0000, -4.739876190283841E+08, 6.369825692629039E+07, -8.662832215911256E+06,
2460294.500000000, A.D. 2023-Dec-16 00:00:00.0000, -4.790370396251634E+08, 5.522401104861622E+07, -6.601777912873009E+06,
2460301.500000000, A.D. 2023-Dec-23 00:00:00.0000, -4.838791438635734E+08, 4.672579345421203E+07, -4.537861600761283E+06,
2460308.500000000, A.D. 2023-Dec-30 00:00:00.0000, -4.885168270506113E+08, 3.820776608238754E+07, -2.472023980945298E+06,
2460315.500000000, A.D. 2024-Jan-06 00:00:00.0000, -4.929529703369001E+08, 2.967391024521242E+07, -4.051626920712385E+05,
2460322.500000000, A.D. 2024-Jan-13 00:00:00.0000, -4.971904380913876E+08, 2.112803372080283E+07, 1.661865558562642E+06,
2460329.500000000, A.D. 2024-Jan-20 00:00:00.0000, -5.012320737767529E+08, 1.257377796164274E+07, 3.728242818541827E+06,
2460336.500000000, A.D. 2024-Jan-27 00:00:00.0000, -5.050806963057731E+08, 4.014626077595249E+06, 5.793187905171654E+06,
2460343.500000000, A.D. 2024-Feb-03 00:00:00.0000, -5.087390972645594E+08, -4.546089345555745E+06, 7.855954570054580E+06,
2460350.500000000, A.D. 2024-Feb-10 00:00:00.0000, -5.122100386865224E+08, -1.310517887145281E+07, 9.915829760845723E+06,
2460357.500000000, A.D. 2024-Feb-17 00:00:00.0000, -5.154962512019362E+08, -2.165958926184282E+07, 1.197213196483879E+07,
2460364.500000000, A.D. 2024-Feb-24 00:00:00.0000, -5.186004324933689E+08, -3.020639692106031E+07, 1.402420962898951E+07,
2460371.500000000, A.D. 2024-Mar-02 00:00:00.0000, -5.215252459967567E+08, -3.874280175612882E+07, 1.607143964768310E+07,
2460378.500000000, A.D. 2024-Mar-09 00:00:00.0000, -5.242733196813028E+08, -4.726612150260379E+07, 1.811322589701243E+07,
2460385.500000000, A.D. 2024-Mar-16 00:00:00.0000, -5.268472444874046E+08, -5.577378630616828E+07, 2.014899779208313E+07,
2460392.500000000, A.D. 2024-Mar-23 00:00:00.0000, -5.292495725028682E+08, -6.426333243841665E+07, 2.217820896414859E+07,
2460399.500000000, A.D. 2024-Mar-30 00:00:00.0000, -5.314828170975807E+08, -7.273239516171350E+07, 2.420033625764506E+07,
2460406.500000000, A.D. 2024-Apr-06 00:00:00.0000, -5.335494547426939E+08, -8.117870409923176E+07, 2.621487874523719E+07,
2460413.500000000, A.D. 2024-Apr-13 00:00:00.0000, -5.354519249471283E+08, -8.960008026172584E+07, 2.822135650053237E+07,
2460420.500000000, A.D. 2024-Apr-20 00:00:00.0000, -5.371926292477927E+08, -9.799443204258989E+07, 3.021930943166830E+07,
2460427.500000000, A.D. 2024-Apr-27 00:00:00.0000, -5.387739307564332E+08, -1.063597507319789E+08, 3.220829626620931E+07,
2460434.500000000, A.D. 2024-May-04 00:00:00.0000, -5.401981541635345E+08, -1.146941062431765E+08, 3.418789361913781E+07,
2460441.500000000, A.D. 2024-May-11 00:00:00.0000, -5.414675859507730E+08, -1.229956431425605E+08, 3.615769511131878E+07,
2460448.500000000, A.D. 2024-May-18 00:00:00.0000, -5.425844747206160E+08, -1.312625769510751E+08, 3.811731053041729E+07,
2460455.500000000, A.D. 2024-May-25 00:00:00.0000, -5.435510316095659E+08, -1.394931907142036E+08, 4.006636502928141E+07,
2460462.500000000, A.D. 2024-Jun-01 00:00:00.0000, -5.443694307171595E+08, -1.476858318882113E+08, 4.200449834959120E+07,
2460469.500000000, A.D. 2024-Jun-08 00:00:00.0000, -5.450418092970678E+08, -1.558389095564370E+08, 4.393136404440467E+07,
2460476.500000000, A.D. 2024-Jun-15 00:00:00.0000, -5.455702673041006E+08, -1.639508914218153E+08, 4.584662870570910E+07,
2460483.500000000, A.D. 2024-Jun-22 00:00:00.0000, -5.459568672961613E+08, -1.720202993923046E+08, 4.774997138349465E+07,
2460490.500000000, A.D. 2024-Jun-29 00:00:00.0000, -5.462036368074890E+08, -1.800457055726558E+08, 4.964108324051161E+07,
2460497.500000000, A.D. 2024-Jul-06 00:00:00.0000, -5.463125705442460E+08, -1.880257311266814E+08, 5.151966699669068E+07,
2460504.500000000, A.D. 2024-Jul-13 00:00:00.0000, -5.462856304494582E+08, -1.959590451786522E+08, 5.338543621382799E+07,
2460511.500000000, A.D. 2024-Jul-20 00:00:00.0000, -5.461247456187528E+08, -2.038443625981962E+08, 5.523811469504157E+07,
2460518.500000000, A.D. 2024-Jul-27 00:00:00.0000, -5.458318127192131E+08, -2.116804416221207E+08, 5.707743597921903E+07,
2460525.500000000, A.D. 2024-Aug-03 00:00:00.0000, -5.454086966356866E+08, -2.194660816824265E+08, 5.890314287331070E+07,
2460532.500000000, A.D. 2024-Aug-10 00:00:00.0000, -5.448572311765033E+08, -2.272001214391672E+08, 6.071498700547517E+07,
2460539.500000000, A.D. 2024-Aug-17 00:00:00.0000, -5.441792197890214E+08, -2.348814369905127E+08, 6.251272839508030E+07,
2460546.500000000, A.D. 2024-Aug-24 00:00:00.0000, -5.433764362547810E+08, -2.425089402765066E+08, 6.429613503371302E+07,
2460553.500000000, A.D. 2024-Aug-31 00:00:00.0000, -5.424506252462535E+08, -2.500815777326611E+08, 6.606498246008333E+07,
2460560.500000000, A.D. 2024-Sep-07 00:00:00.0000, -5.414035023774930E+08, -2.575983290622472E+08, 6.781905330418006E+07,
2460567.500000000, A.D. 2024-Sep-14 00:00:00.0000, -5.402367536616043E+08, -2.650582051271830E+08, 6.955813687289730E+07,
2460574.500000000, A.D. 2024-Sep-21 00:00:00.0000, -5.389520364024733E+08, -2.724602445412230E+08, 7.128202899571373E+07,
2460581.500000000, A.D. 2024-Sep-28 00:00:00.0000, -5.375509820076722E+08, -2.798035121898866E+08, 7.299053191035062E+07,
2460588.500000000, A.D. 2024-Oct-05 00:00:00.0000, -5.360351970530126E+08, -2.870870996720764E+08, 7.468345385116909E+07,
2460595.500000000, A.D. 2024-Oct-12 00:00:00.0000, -5.344062629590865E+08, -2.943101246792837E+08, 7.636060861615005E+07,
2460602.500000000, A.D. 2024-Oct-19 00:00:00.0000, -5.326657360297698E+08, -3.014717295793270E+08, 7.802181525006822E+07,
2460609.500000000, A.D. 2024-Oct-26 00:00:00.0000, -5.308151478841226E+08, -3.085710800026857E+08, 7.966689778052226E+07,
2460616.500000000, A.D. 2024-Nov-02 00:00:00.0000, -5.288560060236883E+08, -3.156073635767962E+08, 8.129568497039428E+07,
2460623.500000000, A.D. 2024-Nov-09 00:00:00.0000, -5.267897944380979E+08, -3.225797887846495E+08, 8.290801007896794E+07,
2460630.500000000, A.D. 2024-Nov-16 00:00:00.0000, -5.246179742226048E+08, -3.294875839445223E+08, 8.450371062880093E+07,
2460637.500000000, A.D. 2024-Nov-23 00:00:00.0000, -5.223419841601691E+08, -3.363299963579643E+08, 8.608262816945767E+07,
2460644.500000000, A.D. 2024-Nov-30 00:00:00.0000, -5.199632410593962E+08, -3.431062916660704E+08, 8.764460801503998E+07,
2460651.500000000, A.D. 2024-Dec-07 00:00:00.0000, -5.174831394285588E+08, -3.498157529909400E+08, 8.918949895098934E+07,
2460658.500000000, A.D. 2024-Dec-14 00:00:00.0000, -5.149030511739348E+08, -3.564576786359773E+08, 9.071715307292956E+07,
2460665.500000000, A.D. 2024-Dec-21 00:00:00.0000, -5.122243276406109E+08, -3.630313795837666E+08, 9.222742586842793E+07,
2460672.500000000, A.D. 2024-Dec-28 00:00:00.0000, -5.094483020233274E+08, -3.695361797573034E+08, 9.372017611803043E+07,
2460679.500000000, A.D. 2025-Jan-04 00:00:00.0000, -5.065762895505338E+08, -3.759714166667126E+08, 9.519526557145184E+07,
2460686.500000000, A.D. 2025-Jan-11 00:00:00.0000, -5.036095872629021E+08, -3.823364407795895E+08, 9.665255870146090E+07,
2460693.500000000, A.D. 2025-Jan-18 00:00:00.0000, -5.005494743028833E+08, -3.886306145319536E+08, 9.809192254427373E+07,
2460700.500000000, A.D. 2025-Jan-25 00:00:00.0000, -4.973972124715883E+08, -3.948533114529446E+08, 9.951322656519666E+07,
2460707.500000000, A.D. 2025-Feb-01 00:00:00.0000, -4.941540468634866E+08, -4.010039154321736E+08, 1.009163425296153E+08,
2460714.500000000, A.D. 2025-Feb-08 00:00:00.0000, -4.908212065206575E+08, -4.070818201088718E+08, 1.023011443755516E+08,
$$EOE